COMMENT,ORIGINATOR,NORAD_CAT_ID,OBJECT_NAME,OBJECT_TYPE,CLASSIFICATION_TYPE,INTLDES,EPOCH,EPOCH_MICROSECONDS,MEAN_MOTION,ECCENTRICITY,INCLINATION,RA_OF_ASC_NODE,ARG_OF_PERICENTER,MEAN_ANOMALY,EPHEMERIS_TYPE,ELEMENT_SET_NO,REV_AT_EPOCH,BSTAR,MEAN_MOTION_DOT,MEAN_MOTION_DDOT,FILE,TLE_LINE0,TLE_LINE1,TLE_LINE2,OBJECT_ID,OBJECT_NUMBER,SEMIMAJOR_AXIS,PERIOD,APOGEE,PERIGEE
"GENERATED VIA SPACETRACK.ORG API","JSPOC","40554","GONETS M 13 (M23)","PAYLOAD","U","15020C","2016-01-12 11:10:47","826048","12.42884404","0.0013287","82.4846","243.9672","357.7413","2.3606","0","999","3563","0","1e-07","0","1979480","0 GONETS M 13 (M23)","1 40554U 15020C   16012.46583132  .00000010  00000-0  00000+0 0  9998","2 40554  82.4846 243.9672 0013287 357.7413   2.3606 12.42884404 35637","2015-020C","40554","7872.536","115.859","1504.861","1483.941"
"GENERATED VIA SPACETRACK.ORG API","JSPOC","40980","FLOCK 2B 14","PAYLOAD","U","98067HN","2016-01-12 11:10:57","224640","15.64293728","0.0007282","51.6404","115.8697","352.6565","7.4322","0","999","1508","0.00055602","0.00054039","0","1979433","0 FLOCK 2B 14","1 40980U 98067HN  16012.46594010  .00054039  00000-0  55602-3 0  9992","2 40980  51.6404 115.8697 0007282 352.6565   7.4322 15.64293728 15080","1998-067HN","40980","6753.407","92.054","380.190","370.354"
"GENERATED VIA SPACETRACK.ORG API","JSPOC","27375","IRIDIUM 95","PAYLOAD","U","02005D","2016-01-12 11:11:18","334752","14.34216834","0.0001992","86.4005","145.6684","93.182","266.9603","0","999","73613","8.3279e-05","2.53e-06","0","1979430","0 IRIDIUM 95","1 27375U 02005D   16012.46618443  .00000253  00000-0  83279-4 0  9990","2 27375  86.4005 145.6684 0001992  93.1820 266.9603 14.34216834736135","2002-005D","27375","7155.807","100.403","779.097","776.246"
"GENERATED VIA SPACETRACK.ORG API","JSPOC","28656","BREEZE-M R/B","ROCKET BODY","U","04008C","2016-01-12 11:11:23","19360","1.97317773","0.6107511","11.954","177.7504","275.0938","14.437","0","999","7908","0","1.3e-07","0","1979400","0 BREEZE-M R/B","1 28656U 04008C   16012.46623865  .00000013  00000-0  00000+0 0  9992","2 28656  11.9540 177.7504 6107511 275.0938  14.4370  1.97317773 79083","2004-008C","28656","26850.829","729.787","36871.867","4073.520"
"GENERATED VIA SPACETRACK.ORG API","JSPOC","10521","SL-8 R/B","ROCKET BODY","U","77119B","2016-01-12 11:11:29","213376","14.40582014","0.002219","74.0275","152.4367","290.7244","69.1533","0","999","99712","3.2303e-05","7.6e-07","0","1979365","0 SL-8 R/B","1 10521U 77119B   16012.46631034  .00000076  00000-0  32303-4 0  9999","2 10521  74.0275 152.4367 0022190 290.7244  69.1533 14.40582014997120","1977-119B","10521","7134.713","99.959","772.410","740.746"
"GENERATED VIA SPACETRACK.ORG API","JSPOC","13121","SL-3 R/B","ROCKET BODY","U","82027B","2016-01-12 11:11:31","128000","15.07573729","0.0029323","81.1666","358.2527","93.6476","266.8102","0","999","83806","5.4334e-05","8.58e-06","0","1979855","0 SL-3 R/B","1 13121U 82027B   16012.46633250 +.00000858 +00000-0 +54334-4 0  9990","2 13121 081.1666 358.2527 0029323 093.6476 266.8102 15.07573729838060","1982-027B","13121","6921.753","95.517","563.915","523.321"
"GENERATED VIA SPACETRACK.ORG API","JSPOC","39636","PSLV R/B","ROCKET BODY","U","14017B","2016-01-12 11:11:33","75456","4.00900316","0.600169","19.0489","166.1888","29.251","353.8956","0","999","2530","0.00031687","8.38e-06","0","1979855","0 PSLV R/B","1 39636U 14017B   16012.46635504 +.00000838 +00000-0 +31687-3 0  9990","2 39636 019.0489 166.1888 6001690 029.2510 353.8956 04.00900316025301","2014-017B","39636","16738.283","359.191","20405.946","314.349"
"GENERATED VIA SPACETRACK.ORG API","JSPOC","15475","SL-14 R/B","ROCKET BODY","U","85003G","2016-01-12 11:11:36","914208","12.55150926","0.0038473","82.6122","109.0562","83.354","49.9189","0","999","41992","0.00012455","3.1e-07","0","1979385","0 SL-14 R/B","1 15475U 85003G   16012.46639947  .00000031  00000-0  12455-3 0  9990","2 15475  82.6122 109.0562 0038473  83.3540  49.9189 12.55150926419927","1985-003G","15475","7821.160","114.727","1473.116","1412.935"
"GENERATED VIA SPACETRACK.ORG API","JSPOC","21576","ORBCOMM-X","PAYLOAD","U","91050C","2016-01-12 11:11:38","854752","14.41328736","0.0004704","98.7456","20.5417","74.0785","286.0921","0","999","28610","6.2616e-05","1.56e-06","0","1979413","0 ORBCOMM-X","1 21576U 91050C   16012.46642193  .00000156  00000-0  62616-4 0  9998","2 21576  98.7456  20.5417 0004704  74.0785 286.0921 14.41328736286101","1991-050C","21576","7132.248","99.907","757.468","750.758"
"GENERATED VIA SPACETRACK.ORG API","JSPOC","19970","IUS R/B(1)","ROCKET BODY","U","89033C","2016-01-12 11:11:53","846880","3.92109643","0.6075288","27.876","158.3419","259.7638","30.7375","0","999","35212","0.00068172","2.976e-05","0","1979855","0 IUS R/B(1)","1 19970U 89033C   16012.46659545 +.00002976 +00000-0 +68172-3 0  9994","2 19970 027.8760 158.3419 6075288 259.7638 030.7375 03.92109643352120","1989-033C","19970","16987.526","367.244","20929.803","288.980"
"GENERATED VIA SPACETRACK.ORG API","JSPOC","19970","IUS R/B(1)","ROCKET BODY","U","89033C","2016-01-12 11:11:53","846880","3.92109643","0.6075288","27.876","158.3419","259.7638","30.7375","0","999","35210","0.00068172","2.976e-05","0","1980283","0 IUS R/B(1)","1 19970U 89033C   16012.46659545  .00002976  00000-0  68172-3 0  9994","2 19970  27.8760 158.3419 6075288 259.7638  30.7375  3.92109643352108","1989-033C","19970","16987.526","367.244","20929.803","288.980"
"GENERATED VIA SPACETRACK.ORG API","JSPOC","7824","COSMOS 735","PAYLOAD","U","75045D","2016-01-12 11:11:54","431808","12.49317208","0.0008589","74.0184","354.6036","226.539","305.699","0","999","85311","-7.7293e-05","-2.8e-07","0","1979393","0 COSMOS 735","1 07824U 75045D   16012.46660222 -.00000028  00000-0 -77293-4 0  9994","2 07824  74.0184 354.6036 0008589 226.5390 305.6990 12.49317208853118","1975-045D","7824","7845.489","115.262","1474.092","1460.615"
"GENERATED VIA SPACETRACK.ORG API","JSPOC","39173","BREEZE-M R/B","ROCKET BODY","U","13026B","2016-01-12 11:11:56","778432","1.10514074","0.7628263","28.4493","316.0183","320.7106","3.8177","0","999","1054","0","-3.5e-06","0","1979592","0 BREEZE-M R/B","1 39173U 13026B   16012.46662938 -.00000350  00000-0  00000+0 0  9997","2 39173  28.4493 316.0183 7628263 320.7106   3.8177  1.10514074 10549","2013-026B","39173","39517.559","1303.001","63284.458","2994.390"
"GENERATED VIA SPACETRACK.ORG API","JSPOC","39173","BREEZE-M R/B","ROCKET BODY","U","13026B","2016-01-12 11:11:56","833728","1.10514068","0.7628228","28.4492","316.0177","320.7119","3.8174","0","999","1016","0","-3.5e-06","0","1980270","0 BREEZE-M R/B","1 39173U 13026B   16012.46663002 -.00000350 +00000-0 +00000-0 0  9991","2 39173 028.4492 316.0177 7628228 320.7119 003.8174 01.10514068010164","2013-026B","39173","39517.560","1303.001","63284.322","2994.529"
"GENERATED VIA SPACETRACK.ORG API","JSPOC","10723","DELTA 1 R/B(2)","ROCKET BODY","U","78012C","2016-01-12 11:12:05","612832","5.25963493","0.5261888","29.3052","42.8414","164.9199","220.3545","0","999","31718","0.0011444","0.00019947","0","1979855","0 DELTA 1 R/B(2)","1 10723U 78012C   16012.46673163 +.00019947 +00000-0 +11444-2 0  9993","2 10723 029.3052 042.8414 5261888 164.9199 220.3545 05.25963493317183","1978-012C","10723","13966.838","273.783","14937.897","239.509"
"GENERATED VIA SPACETRACK.ORG API","JSPOC","16495","COSMOS 1726","PAYLOAD","U","86006A","2016-01-12 11:12:23","408640","15.21144887","0.0012957","82.4726","233.2176","215.6609","144.3763","0","999","63694","0.00015903","3.579e-05","0","1979446","0 COSMOS 1726","1 16495U 86006A   16012.46693760  .00003579  00000-0  15903-3 0  9991","2 16495  82.4726 233.2176 0012957 215.6609 144.3763 15.21144887636940","1986-006A","16495","6880.523","94.665","511.303","493.472"
"GENERATED VIA SPACETRACK.ORG API","JSPOC","13379","COSMOS 1392","PAYLOAD","U","82073E","2016-01-12 11:12:26","231328","12.49336682","0.0008879","74.0154","3.1807","140.6743","337.3278","0","999","21312","-6.2721e-05","-2.5e-07","0","1979442","0 COSMOS 1392","1 13379U 82073E   16012.46697027 -.00000025  00000-0 -62721-4 0  9995","2 13379  74.0154   3.1807 0008879 140.6743 337.3278 12.49336682213128","1982-073E","13379","7845.407","115.261","1474.238","1460.306"
"GENERATED VIA SPACETRACK.ORG API","JSPOC","20764","MARCOPOLO 2 R/B(PAM-D)","ROCKET BODY","U","90074C","2016-01-12 11:12:44","864352","2.17572337","0.7271516","20.7455","149.7125","221.4692","167.2008","0","999","20073","0.00027672","1.7e-07","0","1979429","0 MARCOPOLO 2 R/B(PAM-D)","1 20764U 90074C   16012.46718593  .00000017  00000-0  27672-3 0  9997","2 20764  20.7455 149.7125 7271516 221.4692 167.2008  2.17572337200731","1990-074C","20764","25157.417","661.848","37072.538","486.026"
"GENERATED VIA SPACETRACK.ORG API","JSPOC","26476","DM-F3","PAYLOAD","U","00048A","2016-01-12 11:12:46","567296","4.77567527","0.5619773","27.3333","73.2156","140.896","277.4912","0","999","23667","5.4334e-05","0.0002249","0","1979364","0 DM-F3","1 26476U 00048A   16012.46720564  .00022490 -16961-6  54334-4 0  9991","2 26476  27.3333  73.2156 5619773 140.8960 277.4912  4.77567527236674","2000-048A","26476","14895.164","301.528","16887.774","146.285"
"GENERATED VIA SPACETRACK.ORG API","JSPOC","2741","THOR BURNER 2 R/B","ROCKET BODY","U","67010B","2016-01-12 11:13:30","943200","14.27765551","0.0054178","99.0205","161.8853","152.7704","207.6335","0","999","54207","5.2815e-05","8.6e-07","0","1979443","0 THOR BURNER 2 R/B","1 02741U 67010B   16012.46771925  .00000086  00000-0  52815-4 0  9998","2 02741  99.0205 161.8853 0054178 152.7704 207.6335 14.27765551542071","1967-010B","2741","7177.346","100.856","838.096","760.325"
